GLOBALSTAR M067         
1 32263U 07048A   25034.28080087 -.00000112  00000+0 -10631-3 0  9991
2 32263  51.9736  67.7516 0001095  78.0670   5.2169 12.40665400792867
GLOBALSTAR M070         
1 32264U 07048B   25034.72590821 -.00000072  00000+0  17482-3 0  9998
2 32264  51.9733 175.0783 0001029 116.8087 352.3135 12.62311533796811
GLOBALSTAR M066         
1 32265U 07048C   25034.47205916 -.00000078  00000+0  14082-3 0  9998
2 32265  51.9680  53.4032 0000310 143.4067   3.6003 12.42170312798767
GLOBALSTAR M068         
1 32266U 07048D   25034.24768963 -.00000081  00000+0  12952-3 0  9998
2 32266  51.9914 350.5471 0000680 177.6083 322.4597 12.62814623800635
GLOBALSTAR M079         
1 37188U 10054A   25034.59759472 -.00000093  00000+0  60036-4 0  9990
2 37188  52.0018 186.4547 0000968  83.0544 356.0823 12.62270442660264
GLOBALSTAR M074         
1 37189U 10054B   25034.70910244 -.00000093  00000+0  61071-4 0  9990
2 37189  51.9994 185.4587 0001132 103.4444   2.2707 12.62262443660206
GLOBALSTAR M076         
1 37190U 10054C   25034.82480932 -.00000081  00000+0  12474-3 0  9990
2 37190  52.0009 185.2632 0001265  87.4714  65.7229 12.62277466659936
GLOBALSTAR M077         
1 37191U 10054D   25034.47901796 -.00000073  00000+0  17331-3 0  9996
2 37191  52.0065 143.1369 0000870 111.1656 328.2861 12.62270425660265
